KUIPER-00061            
1 64521U 25134X   25292.97086911  .00029824  00000+0  39237-2 0  9994
2 64521  51.8993 130.3356 0005771 167.2998 192.8111 14.79924879 19292
KUIPER-00062            
1 64522U 25134Y   25292.97411044  .00006777  00000+0  81911-3 0  9993
2 64522  51.8956 137.1664 0007665 187.2830 172.8025 14.84678477 19210
KUIPER-00063            
1 64523U 25134Z   25292.95361844  .00005675  00000+0  77478-3 0  9993
2 64523  51.9002 140.3392 0004293 121.7778 238.3603 14.79824061 19166
KUIPER-00064            
1 64524U 25134AA  25292.94123526  .00006182  00000+0  84922-3 0  9992
2 64524  51.9004 137.6518 0005399 241.6311 118.4107 14.79422353 19201
KUIPER-00065            
1 64525U 25134AB  25292.98200040  .00003020  00000+0  42521-3 0  9991
2 64525  51.9002 142.4111 0011421 175.2158 184.8915 14.79901150 19129
KUIPER-00066            
1 64526U 25134AC  25292.97276489  .00021943  00000+0  10642-2 0  9993
2 64526  51.8884 127.6081 0004433 192.4766 167.6104 15.18424603 19349
KUIPER-00069            
1 64816U 25151A   25293.00001157 -.00304780  00000+0 -16099-1 0  9993
2 64816  51.8807 186.9437 0007893 143.3208  63.4192 15.16438028  5831
KUIPER-00070            
1 64817U 25151B   25292.92102356  .00003219  00000+0  45067-3 0  9997
2 64817  51.8995 208.0436 0010047 143.6981 216.4665 14.79970008 15575
