<?xml version="1.0" encoding="UTF-8"?>
<ndm xmlns:xsi="http://www.w3.org/2001/XMLSchema-instance" xsi:noNamespaceSchemaLocation="https://sanaregistry.org/r/ndmxml_unqualified/ndmxml-2.0.0-master-2.0.xsd">
<omm id="CCSDS_OMM_VERS" version="2.0">
<header><CREATION_DATE/><ORIGINATOR/></header><body><segment><metadata><OBJECT_NAME>KUIPER-00061</OBJECT_NAME><OBJECT_ID>2025-134X</OBJECT_ID><CENTER_NAME>EARTH</CENTER_NAME><REF_FRAME>TEME</REF_FRAME><TIME_SYSTEM>UTC</TIME_SYSTEM><MEAN_ELEMENT_THEORY>SGP4</MEAN_ELEMENT_THEORY></metadata><data><meanElements><EPOCH>2025-10-19T23:18:03.091104</EPOCH><MEAN_MOTION>14.79924879</MEAN_MOTION><ECCENTRICITY>.00057715</ECCENTRICITY><INCLINATION>51.8993</INCLINATION><RA_OF_ASC_NODE>130.3356</RA_OF_ASC_NODE><ARG_OF_PERICENTER>167.2998</ARG_OF_PERICENTER><MEAN_ANOMALY>192.8111</MEAN_ANOMALY></meanElements><tleParameters><EPHEMERIS_TYPE>0</EPHEMERIS_TYPE><CLASSIFICATION_TYPE>U</CLASSIFICATION_TYPE><NORAD_CAT_ID>64521</NORAD_CAT_ID><ELEMENT_SET_NO>999</ELEMENT_SET_NO><REV_AT_EPOCH>1929</REV_AT_EPOCH><BSTAR>.39236944E-2</BSTAR><MEAN_MOTION_DOT>.29824E-3</MEAN_MOTION_DOT><MEAN_MOTION_DDOT>0</MEAN_MOTION_DDOT></tleParameters></data></segment></body></omm>
<omm id="CCSDS_OMM_VERS" version="2.0">
<header><CREATION_DATE/><ORIGINATOR/></header><body><segment><metadata><OBJECT_NAME>KUIPER-00062</OBJECT_NAME><OBJECT_ID>2025-134Y</OBJECT_ID><CENTER_NAME>EARTH</CENTER_NAME><REF_FRAME>TEME</REF_FRAME><TIME_SYSTEM>UTC</TIME_SYSTEM><MEAN_ELEMENT_THEORY>SGP4</MEAN_ELEMENT_THEORY></metadata><data><meanElements><EPOCH>2025-10-19T23:22:43.142016</EPOCH><MEAN_MOTION>14.84678477</MEAN_MOTION><ECCENTRICITY>.00076653</ECCENTRICITY><INCLINATION>51.8956</INCLINATION><RA_OF_ASC_NODE>137.1664</RA_OF_ASC_NODE><ARG_OF_PERICENTER>187.2830</ARG_OF_PERICENTER><MEAN_ANOMALY>172.8025</MEAN_ANOMALY></meanElements><tleParameters><EPHEMERIS_TYPE>0</EPHEMERIS_TYPE><CLASSIFICATION_TYPE>U</CLASSIFICATION_TYPE><NORAD_CAT_ID>64522</NORAD_CAT_ID><ELEMENT_SET_NO>999</ELEMENT_SET_NO><REV_AT_EPOCH>1921</REV_AT_EPOCH><BSTAR>.81910712E-3</BSTAR><MEAN_MOTION_DOT>.6777E-4</MEAN_MOTION_DOT><MEAN_MOTION_DDOT>0</MEAN_MOTION_DDOT></tleParameters></data></segment></body></omm>
<omm id="CCSDS_OMM_VERS" version="2.0">
<header><CREATION_DATE/><ORIGINATOR/></header><body><segment><metadata><OBJECT_NAME>KUIPER-00063</OBJECT_NAME><OBJECT_ID>2025-134Z</OBJECT_ID><CENTER_NAME>EARTH</CENTER_NAME><REF_FRAME>TEME</REF_FRAME><TIME_SYSTEM>UTC</TIME_SYSTEM><MEAN_ELEMENT_THEORY>SGP4</MEAN_ELEMENT_THEORY></metadata><data><meanElements><EPOCH>2025-10-19T22:53:12.633216</EPOCH><MEAN_MOTION>14.79824061</MEAN_MOTION><ECCENTRICITY>.0004293</ECCENTRICITY><INCLINATION>51.9002</INCLINATION><RA_OF_ASC_NODE>140.3392</RA_OF_ASC_NODE><ARG_OF_PERICENTER>121.7778</ARG_OF_PERICENTER><MEAN_ANOMALY>238.3603</MEAN_ANOMALY></meanElements><tleParameters><EPHEMERIS_TYPE>0</EPHEMERIS_TYPE><CLASSIFICATION_TYPE>U</CLASSIFICATION_TYPE><NORAD_CAT_ID>64523</NORAD_CAT_ID><ELEMENT_SET_NO>999</ELEMENT_SET_NO><REV_AT_EPOCH>1916</REV_AT_EPOCH><BSTAR>.77478142E-3</BSTAR><MEAN_MOTION_DOT>.5675E-4</MEAN_MOTION_DOT><MEAN_MOTION_DDOT>0</MEAN_MOTION_DDOT></tleParameters></data></segment></body></omm>
<omm id="CCSDS_OMM_VERS" version="2.0">
<header><CREATION_DATE/><ORIGINATOR/></header><body><segment><metadata><OBJECT_NAME>KUIPER-00064</OBJECT_NAME><OBJECT_ID>2025-134AA</OBJECT_ID><CENTER_NAME>EARTH</CENTER_NAME><REF_FRAME>TEME</REF_FRAME><TIME_SYSTEM>UTC</TIME_SYSTEM><MEAN_ELEMENT_THEORY>SGP4</MEAN_ELEMENT_THEORY></metadata><data><meanElements><EPOCH>2025-10-19T22:35:22.726464</EPOCH><MEAN_MOTION>14.79422353</MEAN_MOTION><ECCENTRICITY>.00053996</ECCENTRICITY><INCLINATION>51.9004</INCLINATION><RA_OF_ASC_NODE>137.6518</RA_OF_ASC_NODE><ARG_OF_PERICENTER>241.6311</ARG_OF_PERICENTER><MEAN_ANOMALY>118.4107</MEAN_ANOMALY></meanElements><tleParameters><EPHEMERIS_TYPE>0</EPHEMERIS_TYPE><CLASSIFICATION_TYPE>U</CLASSIFICATION_TYPE><NORAD_CAT_ID>64524</NORAD_CAT_ID><ELEMENT_SET_NO>999</ELEMENT_SET_NO><REV_AT_EPOCH>1920</REV_AT_EPOCH><BSTAR>.8492242E-3</BSTAR><MEAN_MOTION_DOT>.6182E-4</MEAN_MOTION_DOT><MEAN_MOTION_DDOT>0</MEAN_MOTION_DDOT></tleParameters></data></segment></body></omm>
<omm id="CCSDS_OMM_VERS" version="2.0">
<header><CREATION_DATE/><ORIGINATOR/></header><body><segment><metadata><OBJECT_NAME>KUIPER-00065</OBJECT_NAME><OBJECT_ID>2025-134AB</OBJECT_ID><CENTER_NAME>EARTH</CENTER_NAME><REF_FRAME>TEME</REF_FRAME><TIME_SYSTEM>UTC</TIME_SYSTEM><MEAN_ELEMENT_THEORY>SGP4</MEAN_ELEMENT_THEORY></metadata><data><meanElements><EPOCH>2025-10-19T23:34:04.834560</EPOCH><MEAN_MOTION>14.79901150</MEAN_MOTION><ECCENTRICITY>.0011421</ECCENTRICITY><INCLINATION>51.9002</INCLINATION><RA_OF_ASC_NODE>142.4111</RA_OF_ASC_NODE><ARG_OF_PERICENTER>175.2158</ARG_OF_PERICENTER><MEAN_ANOMALY>184.8915</MEAN_ANOMALY></meanElements><tleParameters><EPHEMERIS_TYPE>0</EPHEMERIS_TYPE><CLASSIFICATION_TYPE>U</CLASSIFICATION_TYPE><NORAD_CAT_ID>64525</NORAD_CAT_ID><ELEMENT_SET_NO>999</ELEMENT_SET_NO><REV_AT_EPOCH>1912</REV_AT_EPOCH><BSTAR>.42520897E-3</BSTAR><MEAN_MOTION_DOT>.302E-4</MEAN_MOTION_DOT><MEAN_MOTION_DDOT>0</MEAN_MOTION_DDOT></tleParameters></data></segment></body></omm>
<omm id="CCSDS_OMM_VERS" version="2.0">
<header><CREATION_DATE/><ORIGINATOR/></header><body><segment><metadata><OBJECT_NAME>KUIPER-00066</OBJECT_NAME><OBJECT_ID>2025-134AC</OBJECT_ID><CENTER_NAME>EARTH</CENTER_NAME><REF_FRAME>TEME</REF_FRAME><TIME_SYSTEM>UTC</TIME_SYSTEM><MEAN_ELEMENT_THEORY>SGP4</MEAN_ELEMENT_THEORY></metadata><data><meanElements><EPOCH>2025-10-19T23:20:46.886496</EPOCH><MEAN_MOTION>15.18424603</MEAN_MOTION><ECCENTRICITY>.00044332</ECCENTRICITY><INCLINATION>51.8884</INCLINATION><RA_OF_ASC_NODE>127.6081</RA_OF_ASC_NODE><ARG_OF_PERICENTER>192.4766</ARG_OF_PERICENTER><MEAN_ANOMALY>167.6104</MEAN_ANOMALY></meanElements><tleParameters><EPHEMERIS_TYPE>0</EPHEMERIS_TYPE><CLASSIFICATION_TYPE>U</CLASSIFICATION_TYPE><NORAD_CAT_ID>64526</NORAD_CAT_ID><ELEMENT_SET_NO>999</ELEMENT_SET_NO><REV_AT_EPOCH>1934</REV_AT_EPOCH><BSTAR>.10642392E-2</BSTAR><MEAN_MOTION_DOT>.21943E-3</MEAN_MOTION_DOT><MEAN_MOTION_DDOT>0</MEAN_MOTION_DDOT></tleParameters></data></segment></body></omm>
<omm id="CCSDS_OMM_VERS" version="2.0">
<header><CREATION_DATE/><ORIGINATOR/></header><body><segment><metadata><OBJECT_NAME>KUIPER-00069</OBJECT_NAME><OBJECT_ID>2025-151A</OBJECT_ID><CENTER_NAME>EARTH</CENTER_NAME><REF_FRAME>TEME</REF_FRAME><TIME_SYSTEM>UTC</TIME_SYSTEM><MEAN_ELEMENT_THEORY>SGP4</MEAN_ELEMENT_THEORY></metadata><data><meanElements><EPOCH>2025-10-20T00:00:00.999648</EPOCH><MEAN_MOTION>15.16438028</MEAN_MOTION><ECCENTRICITY>.00078934</ECCENTRICITY><INCLINATION>51.8807</INCLINATION><RA_OF_ASC_NODE>186.9437</RA_OF_ASC_NODE><ARG_OF_PERICENTER>143.3208</ARG_OF_PERICENTER><MEAN_ANOMALY>63.4192</MEAN_ANOMALY></meanElements><tleParameters><EPHEMERIS_TYPE>0</EPHEMERIS_TYPE><CLASSIFICATION_TYPE>U</CLASSIFICATION_TYPE><NORAD_CAT_ID>64816</NORAD_CAT_ID><ELEMENT_SET_NO>999</ELEMENT_SET_NO><REV_AT_EPOCH>583</REV_AT_EPOCH><BSTAR>-.1609851E-1</BSTAR><MEAN_MOTION_DOT>-.30478E-2</MEAN_MOTION_DOT><MEAN_MOTION_DDOT>0</MEAN_MOTION_DDOT></tleParameters></data></segment></body></omm>
<omm id="CCSDS_OMM_VERS" version="2.0">
<header><CREATION_DATE/><ORIGINATOR/></header><body><segment><metadata><OBJECT_NAME>KUIPER-00070</OBJECT_NAME><OBJECT_ID>2025-151B</OBJECT_ID><CENTER_NAME>EARTH</CENTER_NAME><REF_FRAME>TEME</REF_FRAME><TIME_SYSTEM>UTC</TIME_SYSTEM><MEAN_ELEMENT_THEORY>SGP4</MEAN_ELEMENT_THEORY></metadata><data><meanElements><EPOCH>2025-10-19T22:06:16.435584</EPOCH><MEAN_MOTION>14.79970008</MEAN_MOTION><ECCENTRICITY>.0010047</ECCENTRICITY><INCLINATION>51.8995</INCLINATION><RA_OF_ASC_NODE>208.0436</RA_OF_ASC_NODE><ARG_OF_PERICENTER>143.6981</ARG_OF_PERICENTER><MEAN_ANOMALY>216.4665</MEAN_ANOMALY></meanElements><tleParameters><EPHEMERIS_TYPE>0</EPHEMERIS_TYPE><CLASSIFICATION_TYPE>U</CLASSIFICATION_TYPE><NORAD_CAT_ID>64817</NORAD_CAT_ID><ELEMENT_SET_NO>999</ELEMENT_SET_NO><REV_AT_EPOCH>1557</REV_AT_EPOCH><BSTAR>.45067068E-3</BSTAR><MEAN_MOTION_DOT>.3219E-4</MEAN_MOTION_DOT><MEAN_MOTION_DDOT>0</MEAN_MOTION_DDOT></tleParameters></data></segment></body></omm>

</ndm>
